0 FENGYUN 1C DEB
1 29890U 99025GL  13283.82687418  .00000692  00000-0  42882-3 0   494
2 29890 099.4954 066.4058 0021489 208.0603 260.0049 14.08763566346237
0 FENGYUN 1C DEB
1 29890U 99025GL  13286.02553324  .00000974  00000-0  59211-3 0   506
2 29890 099.4957 068.7201 0021600 202.3083 250.3095 14.08765346346544
0 FENGYUN 1C DEB
1 29890U 99025GL  13288.15486234  .00001436  00000-0  85905-3 0   511
2 29890 099.4961 070.9616 0021647 196.8233 248.9426 14.08770585346844
0 FENGYUN 1C DEB
1 29890U 99025GL  13291.34553837  .00000967  00000-0  58770-3 0   529
2 29890 099.4966 074.3208 0021684 188.5538 230.1935 14.08781040347297
0 FENGYUN 1C DEB
1 29890U 99025GL  13293.63269720  .00000994  00000-0  60303-3 0   534
2 29890 099.4965 076.7290 0021686 182.6081 309.4212 14.08786983347618
0 FENGYUN 1C DEB
1 29890U 99025GL  13295.67984038  .00001106  00000-0  66798-3 0   547
2 29890 099.4963 078.8843 0021696 177.2541 251.4953 14.08790936347908
